[Satellite]
VERSION=1.1
NAME=NOAA 9 [P]
NICKNAME=NOAA 9 [P]
TLE1=1 15427U 84123A   15055.47242822  .00000108  00000-0  76761-4 0  9994
TLE2=2 15427  98.7061   3.0676 0014498 207.0559 260.4984 14.15843431558979
